[{"OBJECT_NAME":"ZIYUAN 1-02C (ZY 1-02C)","OBJECT_ID":"2011-079A","EPOCH":"2026-03-10T00:21:45.280224","MEAN_MOTION":14.38123973,"ECCENTRICITY":0.00053834,"INCLINATION":98.4167,"RA_OF_ASC_NODE":138.3624,"ARG_OF_PERICENTER":238.9134,"MEAN_ANOMALY":241.9717,"EPHEMERIS_TYPE":0,"CLASSIFICATION_TYPE":"U","NORAD_CAT_ID":38038,"ELEMENT_SET_NO":999,"REV_AT_EPOCH":74495,"BSTAR":0.00018700518,"MEAN_MOTION_DOT":5.24e-6,"MEAN_MOTION_DDOT":0},{"OBJECT_NAME":"NOAA 16 DEB","OBJECT_ID":"2000-055HQ","EPOCH":"2026-03-09T00:01:54.906816","MEAN_MOTION":14.34194971,"ECCENTRICITY":0.00166189,"INCLINATION":98.7014,"RA_OF_ASC_NODE":144.9498,"ARG_OF_PERICENTER":285.6387,"MEAN_ANOMALY":74.2963,"EPHEMERIS_TYPE":0,"CLASSIFICATION_TYPE":"U","NORAD_CAT_ID":41347,"ELEMENT_SET_NO":999,"REV_AT_EPOCH":52286,"BSTAR":0.0027947652,"MEAN_MOTION_DOT":7.808e-5,"MEAN_MOTION_DDOT":0}]
